
# Worst residual: 101.94 km
# MJD 60712.000000 (2025 Feb  6  0:00)
A11kaLa = A11jh9s = A11hynf
1 79892U 25000ZZU 25037.49919926  .00000000  00000-0  00000-0 0 26414
2 79892 024.3543 048.1675 6059104 274.1917 034.3926 00.77842529    06

# Worst residual: 127.01 km
# MJD 60713.000000 (2025 Feb  7  0:00)
A11kaLa = A11jh9s = A11hynf
1 79892U 25000ZZU 25038.49919926  .00000000  00000-0  00000-0 0 26415
2 79892 024.3609 047.9382 6068390 275.1230 312.2826 00.77726418    02

# Worst residual: 54.07 km
# MJD 60714.000000 (2025 Feb  8  0:00)
A11kaLa = A11jh9s = A11hynf
1 79892U 25000ZZU 25039.49919926  .00000000  00000-0  00000-0 0 26416
2 79892 024.3609 047.7524 6059068 275.8552 230.7450 00.77384000    08

# Worst residual: 55.47 km
# MJD 60715.000000 (2025 Feb  9  0:00)
A11kaLa = A11jh9s = A11hynf
1 79892U 25000ZZU 25040.49919926  .00000000  00000-0  00000-0 0 26418
2 79892 024.3732 047.5780 6063446 276.7932 149.2160 00.77375732    08

# Worst residual: 135.61 km
# MJD 60716.000000 (2025 Feb 10  0:00)
A11kaLa = A11jh9s = A11hynf
1 79892U 25000ZZU 25041.49919926  .00000000  00000-0  00000-0 0 26419
2 79892 024.3886 047.3890 6082328 277.5304 067.7850 00.77715439    02

# Worst residual: 92.20 km
# MJD 60717.000000 (2025 Feb 11  0:00)
A11kaLa = A11jh9s = A11hynf
1 79892U 25000ZZU 25042.49919926  .00000000  00000-0  00000-0 0 26410
2 79892 024.4226 047.1166 6083848 278.5177 345.6892 00.77846455    09

# Worst residual: 103.52 km
# MJD 60718.000000 (2025 Feb 12  0:00)
A11kaLa = A11jh9s = A11hynf
1 79892U 25000ZZU 25043.49919926  .00000000  00000-0  00000-0 0 26411
2 79892 024.4152 046.9110 6085183 279.2775 263.9584 00.77490949    02

# Worst residual: 48.86 km
# MJD 60719.000000 (2025 Feb 13  0:00)
A11kaLa = A11jh9s = A11hynf
1 79892U 25000ZZU 25044.49919926  .00000000  00000-0  00000-0 0 26412
2 79892 024.4253 046.7197 6074928 280.1787 182.4258 00.77346868    09

# Worst residual: 132.47 km
# MJD 60720.000000 (2025 Feb 14  0:00)
A11kaLa = A11jh9s = A11hynf
1 79892U 25000ZZU 25045.49919926  .00000000  00000-0  00000-0 0 26413
2 79892 024.4512 046.5028 6092675 281.0380 100.9735 00.77580470    00

# Worst residual: 85.86 km
# MJD 60721.000000 (2025 Feb 15  0:00)
A11kaLa = A11jh9s = A11hynf
1 79892U 25000ZZU 25046.49919926  .00000000  00000-0  00000-0 0 26414
2 79892 024.4865 046.2699 6089033 281.8842 019.1688 00.77869709    00

# Worst residual: 115.72 km
# MJD 60722.000000 (2025 Feb 16  0:00)
A11kaLa = A11jh9s = A11hynf
1 79892U 25000ZZU 25047.49919926  .00000000  00000-0  00000-0 0 26415
2 79892 024.5032 045.9694 6094740 282.8205 297.1833 00.77631884    04

# Worst residual: 43.95 km
# MJD 60723.000000 (2025 Feb 17  0:00)
A11kaLa = A11jh9s = A11hynf
1 79892U 25000ZZU 25048.49919926  .00000000  00000-0  00000-0 0 26416
2 79892 024.5128 045.7528 6078678 283.6244 215.6749 00.77359743    00

# Worst residual: 63.14 km
# MJD 60724.000000 (2025 Feb 18  0:00)
A11kaLa = A11jh9s = A11hynf
1 79892U 25000ZZU 25049.49919926  .00000000  00000-0  00000-0 0 26417
2 79892 024.5394 045.5418 6085772 284.5608 134.1727 00.77441011    09

# Worst residual: 133.43 km
# MJD 60725.000000 (2025 Feb 19  0:00)
A11kaLa = A11jh9s = A11hynf
1 79892U 25000ZZU 25050.49919926  .00000000  00000-0  00000-0 0 26419
2 79892 024.5793 045.3286 6092897 285.2819 052.6993 00.77798699    07

# Worst residual: 98.81 km
# MJD 60726.000000 (2025 Feb 20  0:00)
A11kaLa = A11jh9s = A11hynf
1 79892U 25000ZZU 25051.49919926  .00000000  00000-0  00000-0 0 26410
2 79892 024.6163 045.0283 6092160 286.2912 330.5785 00.77773193    00

# Worst residual: 62.47 km
# MJD 60727.000000 (2025 Feb 21  0:00)
A11kaLa = A11jh9s = A11hynf
1 79892U 25000ZZU 25052.49919926  .00000000  00000-0  00000-0 0 26411
2 79892 024.6269 044.7947 6081711 287.0368 249.0022 00.77416755    00

# Worst residual: 58.33 km
# MJD 60728.000000 (2025 Feb 22  0:00)
A11kaLa = A11jh9s = A11hynf
1 79892U 25000ZZU 25053.49919926  .00000000  00000-0  00000-0 0 26412
2 79892 024.6520 044.5732 6075396 287.9930 167.4709 00.77363797    08

# Worst residual: 136.80 km
# MJD 60729.000000 (2025 Feb 23  0:00)
A11kaLa = A11jh9s = A11hynf
1 79892U 25000ZZU 25054.49919926  .00000000  00000-0  00000-0 0 26413
2 79892 024.6916 044.3418 6089810 288.7847 086.0559 00.77657838    09

# Worst residual: 77.61 km
# MJD 60730.000000 (2025 Feb 24  0:00)
A11kaLa = A11jh9s = A11hynf
1 79892U 25000ZZU 25055.49919926  .00000000  00000-0  00000-0 0 26414
2 79892 024.7492 044.0710 6082252 289.7098 004.1008 00.77856427    08

# Worst residual: 116.57 km
# MJD 60731.000000 (2025 Feb 25  0:00)
A11kaLa = A11jh9s = A11hynf
1 79892U 25000ZZU 25056.49919926  .00000000  00000-0  00000-0 0 26415
2 79892 024.7740 043.7892 6081518 290.5743 282.2588 00.77547669    09

# Worst residual: 47.95 km
# MJD 60732.000000 (2025 Feb 26  0:00)
A11kaLa = A11jh9s = A11hynf
1 79892U 25000ZZU 25057.49919926  .00000000  00000-0  00000-0 0 26416
2 79892 024.7993 043.5513 6062862 291.4515 200.7523 00.77343030    05

# Worst residual: 94.99 km
# MJD 60733.000000 (2025 Feb 27  0:00)
A11kaLa = A11jh9s = A11hynf
1 79892U 25000ZZU 25058.49919926  .00000000  00000-0  00000-0 0 26417
2 79892 024.8472 043.3389 6073136 292.3368 119.2761 00.77516022    00

# Worst residual: 114.39 km
# MJD 60734.000000 (2025 Feb 28  0:00)
A11kaLa = A11jh9s = A11hynf
1 79892U 25000ZZU 25059.49919926  .00000000  00000-0  00000-0 0 26418
2 79892 024.9035 043.1049 6067586 293.1169 037.6436 00.77843590    02

# Worst residual: 101.27 km
# MJD 60735.000000 (2025 Mar  1  0:00)
A11kaLa = A11jh9s = A11hynf
1 79892U 25000ZZU 25060.49919926  .00000000  00000-0  00000-0 0 26410
2 79892 024.9519 042.7987 6066104 294.1065 315.5452 00.77695547    09

# Worst residual: 47.91 km
# MJD 60736.000000 (2025 Mar  2  0:00)
A11kaLa = A11jh9s = A11hynf
1 79892U 25000ZZU 25061.49919926  .00000000  00000-0  00000-0 0 26411
2 79892 024.9809 042.5392 6045247 294.9001 234.0245 00.77365495    03
